[{"OBJECT_NAME":"STARLINK-34583","OBJECT_ID":"2025-142T","EPOCH":"2026-03-09T22:26:53.700864","MEAN_MOTION":14.98334024,"ECCENTRICITY":0.00022736,"INCLINATION":70.0033,"RA_OF_ASC_NODE":313.961,"ARG_OF_PERICENTER":270.4759,"MEAN_ANOMALY":89.614,"EPHEMERIS_TYPE":0,"CLASSIFICATION_TYPE":"U","NORAD_CAT_ID":64713,"ELEMENT_SET_NO":999,"REV_AT_EPOCH":3949,"BSTAR":0.00037171575,"MEAN_MOTION_DOT":4.345e-5,"MEAN_MOTION_DDOT":0},{"OBJECT_NAME":"ELECTRON KICK STAGE R\/B","OBJECT_ID":"2024-114G","EPOCH":"2026-03-09T16:42:35.427168","MEAN_MOTION":15.12630878,"ECCENTRICITY":0.00674954,"INCLINATION":97.9507,"RA_OF_ASC_NODE":118.387,"ARG_OF_PERICENTER":79.3604,"MEAN_ANOMALY":281.5218,"EPHEMERIS_TYPE":0,"CLASSIFICATION_TYPE":"U","NORAD_CAT_ID":60085,"ELEMENT_SET_NO":999,"REV_AT_EPOCH":9434,"BSTAR":0.00053349816,"MEAN_MOTION_DOT":9.787e-5,"MEAN_MOTION_DDOT":0}]
